ONEWEB-0137             
1 47283U 20100AB  26090.23482491  .00000013  00000+0  78259-6 0  9997
2 47283  87.9021   6.1331 0001657  76.8783 283.2531 13.12442049254347
ONEWEB-0138             
1 47284U 20100AC  26090.21279644  .00000448  00000+0  12106-2 0  9997
2 47284  87.9018   6.1459 0001991  76.1216 284.0134 13.12444899254422
ONEWEB-0139             
1 47285U 20100AD  26090.17734931 -.00000555  00000+0 -15794-2 0  9995
2 47285  87.9018   6.1399 0001838  77.7582 282.3753 13.12442400254490
ONEWEB-0140             
1 47286U 20100AE  26090.20771957  .00000473  00000+0  12788-2 0  9996
2 47286  87.9019   6.1232 0001847  83.5055 276.6283 13.12445410254463
ONEWEB-0141             
1 47287U 20100AF  26090.17707254 -.00000554  00000+0 -15749-2 0  9994
2 47287  87.9020   6.1350 0001530  72.0473 288.0823 13.12442533254441
ONEWEB-0142             
1 47288U 20100AG  26090.16549092 -.00000245  00000+0 -71621-3 0  9997
2 47288  87.9016   6.1619 0001778  65.5259 294.6055 13.12440540254433
ONEWEB-0143             
1 47289U 20100AH  26090.17551743 -.00000354  00000+0 -10207-2 0  9998
2 47289  87.9019   6.1563 0001768  77.9589 282.1738 13.12442035254416
ONEWEB-0144             
1 47290U 20100AJ  26090.22297372  .00000417  00000+0  11242-2 0  9999
2 47290  87.9024   6.1175 0002035  70.3797 289.7551 13.12442262254349
ONEWEB-0145             
1 47291U 20100AK  26090.19416919  .00000071  00000+0  16267-3 0  9995
2 47291  87.9010   6.1594 0001829  75.7572 284.3760 13.12445414254536
ONEWEB-0146             
1 47292U 20100AL  26090.19077301 -.00000035  00000+0 -13395-3 0  9995
2 47292  87.9020   6.1462 0001748  89.3146 270.8183 13.12444690254444
ONEWEB-0147             
1 47293U 20100AM  26090.23313489  .00000113  00000+0  28004-3 0  9999
2 47293  87.9019   6.1184 0001912  79.6878 280.4466 13.12446808254344
ONEWEB-0115             
1 48042U 21025A   26090.16984257 -.00000458  00000+0 -12879-2 0  9994
2 48042  87.9018 335.7506 0001744  82.9687 277.1640 13.13469349243355
ONEWEB-0152             
1 48043U 21025B   26090.18338441 -.00000056  00000+0 -18935-3 0  9999
2 48043  87.9014 335.7481 0001724  85.2551 274.8775 13.13472632243316
ONEWEB-0153             
1 48044U 21025C   26090.16138107 -.00000308  00000+0 -87944-3 0  9991
2 48044  87.9011 335.7577 0001744  77.7965 282.3360 13.13469020243307
ONEWEB-0154             
1 48045U 21025D   26090.23418251 -.00000181  00000+0 -53064-3 0  9996
2 48045  87.9012 335.7404 0001811  81.1553 278.9781 13.13469300243270
ONEWEB-0116             
1 48046U 21025E   26090.19692987  .00000363  00000+0  95905-3 0  9992
2 48046  87.9016 335.7378 0001708  85.3770 274.7554 13.13472686243416
