[{"OBJECT_NAME":"ONEWEB-0137","OBJECT_ID":"2020-100AB","EPOCH":"2026-03-31T05:38:08.872224","MEAN_MOTION":13.12442049,"ECCENTRICITY":0.0001657,"INCLINATION":87.9021,"RA_OF_ASC_NODE":6.1331,"ARG_OF_PERICENTER":76.8783,"MEAN_ANOMALY":283.2531,"EPHEMERIS_TYPE":0,"CLASSIFICATION_TYPE":"U","NORAD_CAT_ID":47283,"ELEMENT_SET_NO":999,"REV_AT_EPOCH":25434,"BSTAR":7.8259e-07,"MEAN_MOTION_DOT":1.3e-07,"MEAN_MOTION_DDOT":0.0},{"OBJECT_NAME":"ONEWEB-0138","OBJECT_ID":"2020-100AC","EPOCH":"2026-03-31T05:06:25.612416","MEAN_MOTION":13.12444899,"ECCENTRICITY":0.0001991,"INCLINATION":87.9018,"RA_OF_ASC_NODE":6.1459,"ARG_OF_PERICENTER":76.1216,"MEAN_ANOMALY":284.0134,"EPHEMERIS_TYPE":0,"CLASSIFICATION_TYPE":"U","NORAD_CAT_ID":47284,"ELEMENT_SET_NO":999,"REV_AT_EPOCH":25442,"BSTAR":0.0012106,"MEAN_MOTION_DOT":4.48e-06,"MEAN_MOTION_DDOT":0.0},{"OBJECT_NAME":"ONEWEB-0139","OBJECT_ID":"2020-100AD","EPOCH":"2026-03-31T04:15:22.980384","MEAN_MOTION":13.124424,"ECCENTRICITY":0.0001838,"INCLINATION":87.9018,"RA_OF_ASC_NODE":6.1399,"ARG_OF_PERICENTER":77.7582,"MEAN_ANOMALY":282.3753,"EPHEMERIS_TYPE":0,"CLASSIFICATION_TYPE":"U","NORAD_CAT_ID":47285,"ELEMENT_SET_NO":999,"REV_AT_EPOCH":25449,"BSTAR":-0.0015794,"MEAN_MOTION_DOT":-5.55e-06,"MEAN_MOTION_DDOT":0.0},{"OBJECT_NAME":"ONEWEB-0140","OBJECT_ID":"2020-100AE","EPOCH":"2026-03-31T04:59:06.970848","MEAN_MOTION":13.1244541,"ECCENTRICITY":0.0001847,"INCLINATION":87.9019,"RA_OF_ASC_NODE":6.1232,"ARG_OF_PERICENTER":83.5055,"MEAN_ANOMALY":276.6283,"EPHEMERIS_TYPE":0,"CLASSIFICATION_TYPE":"U","NORAD_CAT_ID":47286,"ELEMENT_SET_NO":999,"REV_AT_EPOCH":25446,"BSTAR":0.0012787999999999999,"MEAN_MOTION_DOT":4.73e-06,"MEAN_MOTION_DDOT":0.0},{"OBJECT_NAME":"ONEWEB-0141","OBJECT_ID":"2020-100AF","EPOCH":"2026-03-31T04:14:59.067456","MEAN_MOTION":13.12442533,"ECCENTRICITY":0.000153,"INCLINATION":87.902,"RA_OF_ASC_NODE":6.135,"ARG_OF_PERICENTER":72.0473,"MEAN_ANOMALY":288.0823,"EPHEMERIS_TYPE":0,"CLASSIFICATION_TYPE":"U","NORAD_CAT_ID":47287,"ELEMENT_SET_NO":999,"REV_AT_EPOCH":25444,"BSTAR":-0.0015749,"MEAN_MOTION_DOT":-5.54e-06,"MEAN_MOTION_DDOT":0.0},{"OBJECT_NAME":"ONEWEB-0142","OBJECT_ID":"2020-100AG","EPOCH":"2026-03-31T03:58:18.415488","MEAN_MOTION":13.1244054,"ECCENTRICITY":0.0001778,"INCLINATION":87.9016,"RA_OF_ASC_NODE":6.1619,"ARG_OF_PERICENTER":65.5259,"MEAN_ANOMALY":294.6055,"EPHEMERIS_TYPE":0,"CLASSIFICATION_TYPE":"U","NORAD_CAT_ID":47288,"ELEMENT_SET_NO":999,"REV_AT_EPOCH":25443,"BSTAR":-0.00071621,"MEAN_MOTION_DOT":-2.45e-06,"MEAN_MOTION_DDOT":0.0},{"OBJECT_NAME":"ONEWEB-0143","OBJECT_ID":"2020-100AH","EPOCH":"2026-03-31T04:12:44.705952","MEAN_MOTION":13.12442035,"ECCENTRICITY":0.0001768,"INCLINATION":87.9019,"RA_OF_ASC_NODE":6.1563,"ARG_OF_PERICENTER":77.9589,"MEAN_ANOMALY":282.1738,"EPHEMERIS_TYPE":0,"CLASSIFICATION_TYPE":"U","NORAD_CAT_ID":47289,"ELEMENT_SET_NO":999,"REV_AT_EPOCH":25441,"BSTAR":-0.0010207,"MEAN_MOTION_DOT":-3.54e-06,"MEAN_MOTION_DDOT":0.0},{"OBJECT_NAME":"ONEWEB-0144","OBJECT_ID":"2020-100AJ","EPOCH":"2026-03-31T05:21:04.929408","MEAN_MOTION":13.12442262,"ECCENTRICITY":0.0002035,"INCLINATION":87.9024,"RA_OF_ASC_NODE":6.1175,"ARG_OF_PERICENTER":70.3797,"MEAN_ANOMALY":289.7551,"EPHEMERIS_TYPE":0,"CLASSIFICATION_TYPE":"U","NORAD_CAT_ID":47290,"ELEMENT_SET_NO":999,"REV_AT_EPOCH":25434,"BSTAR":0.0011242000000000001,"MEAN_MOTION_DOT":4.17e-06,"MEAN_MOTION_DDOT":0.0},{"OBJECT_NAME":"ONEWEB-0145","OBJECT_ID":"2020-100AK","EPOCH":"2026-03-31T04:39:36.218016","MEAN_MOTION":13.12445414,"ECCENTRICITY":0.0001829,"INCLINATION":87.901,"RA_OF_ASC_NODE":6.1594,"ARG_OF_PERICENTER":75.7572,"MEAN_ANOMALY":284.376,"EPHEMERIS_TYPE":0,"CLASSIFICATION_TYPE":"U","NORAD_CAT_ID":47291,"ELEMENT_SET_NO":999,"REV_AT_EPOCH":25453,"BSTAR":0.00016267,"MEAN_MOTION_DOT":7.1e-07,"MEAN_MOTION_DDOT":0.0},{"OBJECT_NAME":"ONEWEB-0146","OBJECT_ID":"2020-100AL","EPOCH":"2026-03-31T04:34:42.788064","MEAN_MOTION":13.1244469,"ECCENTRICITY":0.0001748,"INCLINATION":87.902,"RA_OF_ASC_NODE":6.1462,"ARG_OF_PERICENTER":89.3146,"MEAN_ANOMALY":270.8183,"EPHEMERIS_TYPE":0,"CLASSIFICATION_TYPE":"U","NORAD_CAT_ID":47292,"ELEMENT_SET_NO":999,"REV_AT_EPOCH":25444,"BSTAR":-0.00013395,"MEAN_MOTION_DOT":-3.5e-07,"MEAN_MOTION_DDOT":0.0},{"OBJECT_NAME":"ONEWEB-0147","OBJECT_ID":"2020-100AM","EPOCH":"2026-03-31T05:35:42.854496","MEAN_MOTION":13.12446808,"ECCENTRICITY":0.0001912,"INCLINATION":87.9019,"RA_OF_ASC_NODE":6.1184,"ARG_OF_PERICENTER":79.6878,"MEAN_ANOMALY":280.4466,"EPHEMERIS_TYPE":0,"CLASSIFICATION_TYPE":"U","NORAD_CAT_ID":47293,"ELEMENT_SET_NO":999,"REV_AT_EPOCH":25434,"BSTAR":0.00028004,"MEAN_MOTION_DOT":1.13e-06,"MEAN_MOTION_DDOT":0.0},{"OBJECT_NAME":"ONEWEB-0115","OBJECT_ID":"2021-025A","EPOCH":"2026-03-31T04:04:34.398048","MEAN_MOTION":13.13469349,"ECCENTRICITY":0.0001744,"INCLINATION":87.9018,"RA_OF_ASC_NODE":335.7506,"ARG_OF_PERICENTER":82.9687,"MEAN_ANOMALY":277.164,"EPHEMERIS_TYPE":0,"CLASSIFICATION_TYPE":"U","NORAD_CAT_ID":48042,"ELEMENT_SET_NO":999,"REV_AT_EPOCH":24335,"BSTAR":-0.0012878999999999998,"MEAN_MOTION_DOT":-4.58e-06,"MEAN_MOTION_DDOT":0.0},{"OBJECT_NAME":"ONEWEB-0152","OBJECT_ID":"2021-025B","EPOCH":"2026-03-31T04:24:04.413024","MEAN_MOTION":13.13472632,"ECCENTRICITY":0.0001724,"INCLINATION":87.9014,"RA_OF_ASC_NODE":335.7481,"ARG_OF_PERICENTER":85.2551,"MEAN_ANOMALY":274.8775,"EPHEMERIS_TYPE":0,"CLASSIFICATION_TYPE":"U","NORAD_CAT_ID":48043,"ELEMENT_SET_NO":999,"REV_AT_EPOCH":24331,"BSTAR":-0.00018935,"MEAN_MOTION_DOT":-5.6e-07,"MEAN_MOTION_DDOT":0.0},{"OBJECT_NAME":"ONEWEB-0153","OBJECT_ID":"2021-025C","EPOCH":"2026-03-31T03:52:23.324448","MEAN_MOTION":13.1346902,"ECCENTRICITY":0.0001744,"INCLINATION":87.9011,"RA_OF_ASC_NODE":335.7577,"ARG_OF_PERICENTER":77.7965,"MEAN_ANOMALY":282.336,"EPHEMERIS_TYPE":0,"CLASSIFICATION_TYPE":"U","NORAD_CAT_ID":48044,"ELEMENT_SET_NO":999,"REV_AT_EPOCH":24330,"BSTAR":-0.00087944,"MEAN_MOTION_DOT":-3.08e-06,"MEAN_MOTION_DDOT":0.0},{"OBJECT_NAME":"ONEWEB-0154","OBJECT_ID":"2021-025D","EPOCH":"2026-03-31T05:37:13.368864","MEAN_MOTION":13.134693,"ECCENTRICITY":0.0001811,"INCLINATION":87.9012,"RA_OF_ASC_NODE":335.7404,"ARG_OF_PERICENTER":81.1553,"MEAN_ANOMALY":278.9781,"EPHEMERIS_TYPE":0,"CLASSIFICATION_TYPE":"U","NORAD_CAT_ID":48045,"ELEMENT_SET_NO":999,"REV_AT_EPOCH":24327,"BSTAR":-0.00053064,"MEAN_MOTION_DOT":-1.81e-06,"MEAN_MOTION_DDOT":0.0},{"OBJECT_NAME":"ONEWEB-0116","OBJECT_ID":"2021-025E","EPOCH":"2026-03-31T04:43:34.740768","MEAN_MOTION":13.13472686,"ECCENTRICITY":0.0001708,"INCLINATION":87.9016,"RA_OF_ASC_NODE":335.7378,"ARG_OF_PERICENTER":85.377,"MEAN_ANOMALY":274.7554,"EPHEMERIS_TYPE":0,"CLASSIFICATION_TYPE":"U","NORAD_CAT_ID":48046,"ELEMENT_SET_NO":999,"REV_AT_EPOCH":24341,"BSTAR":0.00095905,"MEAN_MOTION_DOT":3.63e-06,"MEAN_MOTION_DDOT":0.0}]